NORAD_CAT_ID,OBJECT_NAME,OBJECT_TYPE,EPOCH,MEAN_MOTION,ECCENTRICITY,INCLINATION,RA_OF_ASC_NODE,ARG_OF_PERICENTER,MEAN_ANOMALY,BSTAR,MEAN_MOTION_DOT,MEAN_MOTION_DDOT,TLE_LINE0,TLE_LINE1,TLE_LINE2,SEMIMAJOR_AXIS,PERIOD,APOGEE,PERIGEE,DECAYED
53558.0,STARLINK-4494,PAYLOAD,2023-01-10 19:44:50,15.08800809,0.0001672,53.2133,198.7881,51.8389,308.2753,-0.00020821,-3.597e-05,0.0,0 STARLINK-4494,1 53558U 22101AH  23010.82281050 -.00003597  00000-0 -20821-3 0  9996,2 53558  53.2133 198.7881 0001672  51.8389 308.2753 15.08800809 22187,6918.0,95.44,541.0219999999998,538.7080000000002,0.0
53558.0,STARLINK-4494,PAYLOAD,2023-01-10 21:20:13,15.08802592,0.0001748,53.2133,198.4908,60.8728,299.2439,-0.00019189,-3.338e-05,0.0,0 STARLINK-4494,1 53558U 22101AH  23010.88905032 -.00003338  00000-0 -19189-3 0  9993,2 53558  53.2133 198.4908 0001748  60.8728 299.2439 15.08802592 22850,6917.995,95.44,541.069,538.65,0.0
53558.0,STARLINK-4494,PAYLOAD,2023-01-11 05:17:07,15.08839356,9.940000000000004e-05,53.2183,197.0078,37.1066,322.9995,6.2537e-05,7.08e-06,0.0,0 STARLINK-4494,1 53558U 22101AH  23011.22022016  .00000708  00000-0  62537-4 0  9996,2 53558  53.2183 197.0078 0000994  37.1066 322.9995 15.08839356 22244,6917.882,95.438,540.435,539.06,0.0
53558.0,STARLINK-4494,PAYLOAD,2023-01-11 14:49:25,15.08846552,0.0001105,53.2178,195.2231,56.0564,304.0533,8.452700000000001e-05,1.058e-05,0.0,0 STARLINK-4494,1 53558U 22101AH  23011.61765503  .00001058  00000-0  84527-4 0  9996,2 53558  53.2178 195.2231 0001105  56.0564 304.0533 15.08846552 22309,6917.86,95.437,540.49,538.961,0.0
53558.0,STARLINK-4494,PAYLOAD,2023-01-11 21:10:57,15.08848031,0.0001183,53.2172,194.034,35.8482,324.2589,0.00019053,2.746e-05,0.0,0 STARLINK-4494,1 53558U 22101AH  23011.88260975  .00002746  00000-0  19053-3 0  9994,2 53558  53.2172 194.0340 0001183  35.8482 324.2589 15.08848031 23008,6917.856,95.437,540.539,538.9019999999998,0.0
53558.0,STARLINK-4494,PAYLOAD,2023-01-12 17:50:58,15.088452900000002,0.0001514,53.2163,190.1656,58.0424,302.0716,0.00017543,2.505e-05,0.0,0 STARLINK-4494,1 53558U 22101AH  23012.74372952  .00002505  00000-0  17543-3 0  9994,2 53558  53.2163 190.1656 0001514  58.0424 302.0716 15.08845290 22476,6917.864000000001,95.437,540.7769999999998,538.682,0.0
53558.0,STARLINK-4494,PAYLOAD,2023-01-12 21:01:44,15.08847251,0.0001479,53.2162,189.5712,43.529,316.5819,0.00015037,2.106e-05,0.0,0 STARLINK-4494,1 53558U 22101AH  23012.87620855  .00002106  00000-0  15037-3 0  9999,2 53558  53.2162 189.5712 0001479  43.5290 316.5819 15.08847251 23159,6917.858,95.437,540.746,538.7,0.0
53558.0,STARLINK-4494,PAYLOAD,2023-01-13 11:20:12,15.08849183,0.0001658,53.2155,186.8954,62.2802,297.8358,-3.5796e-05,-8.58e-06,0.0,0 STARLINK-4494,1 53558U 22101AH  23013.47237259 -.00000858  00000-0 -35796-4 0  9997,2 53558  53.2155 186.8954 0001658  62.2802 297.8358 15.08849183 23240,6917.852,95.437,540.864,538.57,0.0
53558.0,STARLINK-4494,PAYLOAD,2023-01-13 20:52:31,15.08849143,0.000168,53.2152,185.1123,61.486,298.6301,-9.4739e-05,-1.796e-05,0.0,0 STARLINK-4494,1 53558U 22101AH  23013.86981137 -.00001796  00000-0 -94739-4 0  9995,2 53558  53.2152 185.1123 0001680  61.4860 298.6301 15.08849143 23307,6917.852,95.437,540.88,538.555,0.0
53558.0,STARLINK-4494,PAYLOAD,2023-01-15 11:01:46,15.08835304,0.0001541999999999,53.2157,177.9733,76.8502,283.2662,-3.7638e-05,-8.87e-06,0.0,0 STARLINK-4494,1 53558U 22101AH  23015.45957099 -.00000887  00000-0 -37638-4 0  9997,2 53558  53.2157 177.9733 0001542  76.8502 283.2662 15.08835304 22884,6917.895,95.438,540.826,538.693,0.0
53558.0,STARLINK-4494,PAYLOAD,2023-01-15 17:23:19,15.08840265,0.0001402,53.217,176.7856,71.4149,288.6996,-4.3811e-06,-3.58e-06,0.0,0 STARLINK-4494,1 53558U 22101AH  23015.72452679 -.00000358  00000-0 -43811-5 0  9995,2 53558  53.2170 176.7856 0001402  71.4149 288.6996 15.08840265 23584,6917.88,95.438,540.714,538.775,0.0
53558.0,STARLINK-4494,PAYLOAD,2023-01-16 10:52:34,15.08835491,0.0001389,53.2171,173.5147,73.3158,286.7986,-2.6329e-05,-7.07e-06,0.0,0 STARLINK-4494,1 53558U 22101AH  23016.45317142 -.00000707  00000-0 -26329-4 0  9993,2 53558  53.2171 173.5147 0001389  73.3158 286.7986 15.08835491 23693,6917.894,95.438,540.72,538.798,0.0
53558.0,STARLINK-4494,PAYLOAD,2023-01-16 18:49:28,15.08846173,0.0001322,53.2176,172.0268,76.3247,283.7892,6.776e-05,7.91e-06,0.0,0 STARLINK-4494,1 53558U 22101AH  23016.78436161  .00000791  00000-0  67760-4 0  9997,2 53558  53.2176 172.0268 0001322  76.3247 283.7892 15.08846173 23080,6917.861999999999,95.437,540.641,538.812,0.0
53558.0,STARLINK-4494,PAYLOAD,2023-01-16 20:24:51,15.08845876,0.0001343,53.2177,171.73,76.7395,283.3747,6.2291e-05,7.04e-06,0.0,0 STARLINK-4494,1 53558U 22101AH  23016.85060183  .00000704  00000-0  62291-4 0  9990,2 53558  53.2177 171.7300 0001343  76.7395 283.3747 15.08845876 23753,6917.861999999999,95.437,540.656,538.798,0.0
53558.0,STARLINK-4494,PAYLOAD,2023-01-17 02:46:25,15.0883217,0.0001411,53.2189,170.5388,69.55,290.5644,-1.0346e-06,-3.04e-06,0.0,0 STARLINK-4494,1 53558U 22101AH  23017.11557354 -.00000304  00000-0 -10346-5 0  9994,2 53558  53.2189 170.5388 0001411  69.5500 290.5644 15.08832170 23134,6917.904,95.438,540.745,538.793,0.0
53558.0,STARLINK-4494,PAYLOAD,2023-01-17 09:07:58,15.08826802,0.0001565999999999,53.2176,169.351,75.0979,285.0186,-2.014e-05,-6.08e-06,0.0,0 STARLINK-4494,1 53558U 22101AH  23017.38053941 -.00000608  00000-0 -20140-4 0  9995,2 53558  53.2176 169.3510 0001566  75.0979 285.0186 15.08826802 23838,6917.920999999999,95.438,540.869,538.702,0.0
53558.0,STARLINK-4494,PAYLOAD,2023-01-17 17:04:54,15.08835043,0.0001489,53.2179,167.8643,80.1635,279.9525,-4.265e-05,-9.67e-06,0.0,0 STARLINK-4494,1 53558U 22101AH  23017.71173637 -.00000967  00000-0 -42650-4 0  9995,2 53558  53.2179 167.8643 0001489  80.1635 279.9525 15.08835043 23882,6917.896,95.438,540.7909999999999,538.73,0.0
53558.0,STARLINK-4494,PAYLOAD,2023-01-18 13:44:54,15.08861597,0.0001330999999999,53.2205,164.0011,104.8926,255.2213,-0.00025522,-4.35e-05,0.0,0 STARLINK-4494,1 53558U 22101AH  23018.57285166 -.00004350  00000-0 -25522-3 0  9999,2 53558  53.2205 164.0011 0001331 104.8926 255.2213 15.08861597 23359,6917.814,95.436,540.6,538.759,0.0
53558.0,STARLINK-4494,PAYLOAD,2023-01-18 15:20:17,15.08841803,0.0001445,53.2193,163.7023,106.2776,253.8375,9.6637e-06,-1.34e-06,0.0,0 STARLINK-4494,1 53558U 22101AH  23018.63909326 -.00000134  00000-0  96637-5 0  9999,2 53558  53.2193 163.7023 0001445 106.2776 253.8375 15.08841803 23361,6917.875,95.437,540.74,538.74,0.0
53558.0,STARLINK-4494,PAYLOAD,2023-01-19 08:49:32,15.08827192,0.0001419999999999,53.221,160.4346,80.4661,279.6492,9.739e-05,1.262e-05,0.0,0 STARLINK-4494,1 53558U 22101AH  23019.36774173  .00001262  00000-0  97390-4 0  9998,2 53558  53.2210 160.4346 0001420  80.4661 279.6492 15.08827192 23475,6917.92,95.438,540.7669999999999,538.802,0.0
53558.0,STARLINK-4494,PAYLOAD,2023-01-20 02:18:46,15.08839743,9.35e-05,53.2193,157.1613,85.0254,275.0845,5.779e-05,6.32e-06,0.0,0 STARLINK-4494,1 53558U 22101AH  23020.09637656  .00000632  00000-0  57790-4 0  9994,2 53558  53.2193 157.1613 0000935  85.0254 275.0845 15.08839743 23583,6917.880999999999,95.438,540.393,539.099,0.0
53558.0,STARLINK-4494,PAYLOAD,2023-01-20 15:01:51,15.08850932,8.93e-05,53.2177,154.7804,95.8915,264.2179,4.7048e-05,4.61e-06,0.0,0 STARLINK-4494,1 53558U 22101AH  23020.62628754  .00000461  00000-0  47048-4 0  9997,2 53558  53.2177 154.7804 0000893  95.8915 264.2179 15.08850932 23668,6917.847,95.437,540.33,539.094,0.0
53558.0,STARLINK-4494,PAYLOAD,2023-01-21 08:31:07,15.08825986,0.0001256,53.2205,151.5133,90.8966,269.217,-5.6942e-05,-1.194e-05,0.0,0 STARLINK-4494,1 53558U 22101AH  23021.35494518 -.00001194  00000-0 -56942-4 0  9996,2 53558  53.2205 151.5133 0001256  90.8966 269.2170 15.08825986 23774,6917.923000000001,95.438,540.6569999999999,538.919,0.0
53558.0,STARLINK-4494,PAYLOAD,2023-01-21 14:52:38,15.08838364,0.0001146,53.2179,150.3219,98.6954,261.4168,1.3798e-05,-6.8e-07,0.0,0 STARLINK-4494,1 53558U 22101AH  23021.61989462 -.00000068  00000-0  13798-4 0  9992,2 53558  53.2179 150.3219 0001146  98.6954 261.4168 15.08838364 23817,6917.885,95.438,540.543,538.9580000000001,0.0
53558.0,STARLINK-4494,PAYLOAD,2023-01-22 17:54:12,15.08842393,0.0001202,53.2183,145.2644,86.1436,273.9693,-0.00015349,-2.7300000000000003e-05,0.0,0 STARLINK-4494,1 53558U 22101AH  23022.74597991 -.00002730  00000-0 -15349-3 0  9991,2 53558  53.2183 145.2644 0001202  86.1436 273.9693 15.08842393 23983,6917.8730000000005,95.437,540.57,538.9069999999999,0.0
53558.0,STARLINK-4494,PAYLOAD,2023-01-23 14:34:12,15.08840801,0.0001809,53.2171,141.4028,88.5726,271.5473,9.4247e-05,1.212e-05,0.0,0 STARLINK-4494,1 53558U 22101AH  23023.60709479  .00001212  00000-0  94247-4 0  9990,2 53558  53.2171 141.4028 0001809  88.5726 271.5473 15.08840801 24113,6917.878000000001,95.438,540.994,538.491,0.0
53558.0,STARLINK-4494,PAYLOAD,2023-01-24 11:14:14,15.08829229,0.0001213,53.2186,137.5377,69.2788,290.8334,8.311600000000001e-05,1.035e-05,0.0,0 STARLINK-4494,1 53558U 22101AH  23024.46822497  .00001035  00000-0  83116-4 0  9997,2 53558  53.2186 137.5377 0001213  69.2788 290.8334 15.08829229 24240,6917.9130000000005,95.438,540.617,538.939,0.0
53558.0,STARLINK-4494,PAYLOAD,2023-01-25 14:15:48,15.08837918,0.0001134,53.2177,132.4819,95.9189,264.1933,-5.102e-05,-1.1e-05,0.0,0 STARLINK-4494,1 53558U 22101AH  23025.59430810 -.00001100  00000-0 -51020-4 0  9990,2 53558  53.2177 132.4819 0001134  95.9189 264.1933 15.08837918 24410,6917.887,95.438,540.536,538.967,0.0
53558.0,STARLINK-4494,PAYLOAD,2023-01-26 14:06:34,15.08845496,0.0001062,53.2185,128.0206,91.4292,268.6822,9.8679e-05,1.283e-05,0.0,0 STARLINK-4494,1 53558U 22101AH  23026.58790012  .00001283  00000-0  98679-4 0  9994,2 53558  53.2185 128.0206 0001062  91.4292 268.6822 15.08845496 24568,6917.8640000000005,95.437,540.4630000000001,538.994,0.0
